[{"OBJECT_NAME":"STARLINK-2112","OBJECT_ID":"2021-005AU","EPOCH":"2026-03-09T22:08:53.724192","MEAN_MOTION":15.06402406,"ECCENTRICITY":0.00018142,"INCLINATION":53.0572,"RA_OF_ASC_NODE":30.5734,"ARG_OF_PERICENTER":98.0184,"MEAN_ANOMALY":262.1011,"EPHEMERIS_TYPE":0,"CLASSIFICATION_TYPE":"U","NORAD_CAT_ID":47391,"ELEMENT_SET_NO":999,"REV_AT_EPOCH":28349,"BSTAR":0.00010925329,"MEAN_MOTION_DOT":1.346e-5,"MEAN_MOTION_DDOT":0},{"OBJECT_NAME":"UNKNOWN","OBJECT_ID":"","EPOCH":"2026-03-09T02:53:57.432768","MEAN_MOTION":15.04852502,"ECCENTRICITY":0.0007482,"INCLINATION":86.6587,"RA_OF_ASC_NODE":118.2618,"ARG_OF_PERICENTER":183.1315,"MEAN_ANOMALY":176.9875,"EPHEMERIS_TYPE":0,"CLASSIFICATION_TYPE":"U","NORAD_CAT_ID":82402,"ELEMENT_SET_NO":999,"REV_AT_EPOCH":46745,"BSTAR":0.00051144,"MEAN_MOTION_DOT":7.26e-5,"MEAN_MOTION_DDOT":0}]
